{"fetched_at":"2026-03-29T02:12:04Z","count":15717,"tles":[{"name":"SHIYAN-23 (SY-23)","line1":"1 59728U 24089A   26087.71940096  .00000682  00000+0  82290-4 0  9993","line2":"2 59728  97.7782  91.1582 0004937  97.8976 262.2801 14.86931172101889","category":"Other"}]}