{
  "norad_id": 59728,
  "name": "SHIYAN-23 (SY-23)",
  "history": [
    {
      "epoch": "2026-03-28T17:15:56.242944",
      "apogee_km": 610.9796477296004,
      "perigee_km": 604.0819993206514,
      "latitude_deg": -24.845629830991943,
      "longitude_deg": -138.1375078400597,
      "semi_major_axis_km": 6985.667823525126,
      "eccentricity": 0.0004937,
      "inclination_deg": 97.7782,
      "raan_deg": 91.1582,
      "arg_perigee_deg": 97.8976,
      "mean_anomaly_deg": 262.2801,
      "mean_motion_rev_day": 14.86931172
    }
  ]
}